[{"OBJECT_NAME":"STARLINK-3645","OBJECT_ID":"2022-025AG","EPOCH":"2026-03-09T05:19:02.009856","MEAN_MOTION":15.08837507,"ECCENTRICITY":0.00013272,"INCLINATION":53.2184,"RA_OF_ASC_NODE":41.067,"ARG_OF_PERICENTER":81.2225,"MEAN_ANOMALY":278.8918,"EPHEMERIS_TYPE":0,"CLASSIFICATION_TYPE":"U","NORAD_CAT_ID":51986,"ELEMENT_SET_NO":999,"REV_AT_EPOCH":22099,"BSTAR":-2.4536897e-5,"MEAN_MOTION_DOT":-6.78e-6,"MEAN_MOTION_DDOT":0},{"OBJECT_NAME":"IRIDIUM 33 DEB","OBJECT_ID":"1997-051UN","EPOCH":"2026-03-08T06:46:46.443072","MEAN_MOTION":15.09674475,"ECCENTRICITY":0.00152582,"INCLINATION":86.3393,"RA_OF_ASC_NODE":271.884,"ARG_OF_PERICENTER":69.7211,"MEAN_ANOMALY":290.5665,"EPHEMERIS_TYPE":0,"CLASSIFICATION_TYPE":"U","NORAD_CAT_ID":35929,"ELEMENT_SET_NO":999,"REV_AT_EPOCH":89067,"BSTAR":0.003863549,"MEAN_MOTION_DOT":0.00062834,"MEAN_MOTION_DDOT":0}]
